OBJECT_NAME,OBJECT_ID,EPOCH,MEAN_MOTION,ECCENTRICITY,INCLINATION,RA_OF_ASC_NODE,ARG_OF_PERICENTER,MEAN_ANOMALY,EPHEMERIS_TYPE,CLASSIFICATION_TYPE,NORAD_CAT_ID,ELEMENT_SET_NO,REV_AT_EPOCH,BSTAR,MEAN_MOTION_DOT,MEAN_MOTION_DDOT
SKY MUSTER 2 (NBN1B),2016-060B,2026-06-14T18:55:42.705408,1.00270335,.000128,0.0169,327.8167,110.1865,253.8137,0,U,41794,999,3549,0,-.238E-5,0
HIMAWARI-9,2016-064A,2026-06-14T20:37:15.337056,1.00269796,.0000807,0.0508,146.6077,353.7668,212.8607,0,U,41836,999,3518,0,-.269E-5,0
SHIJIAN-17 (SJ-17),2016-065A,2026-06-14T17:40:02.807904,0.99853934,.000171,5.7466,72.6341,28.9025,305.9739,0,U,41838,999,3517,0,.59E-6,0
GOES 16,2016-071A,2026-06-14T16:01:55.726176,1.00270828,.00002,0.3347,85.5274,297.6173,15.6121,0,U,41866,999,3507,0,-.85E-6,0
TIANLIAN 1-04,2016-072A,2026-06-14T19:04:49.332288,1.00271005,.004224,0.8618,82.9346,89.7938,193.3546,0,U,41869,999,3527,0,.36E-6,0
WGS F8 (USA 272),2016-075A,2026-06-14T18:19:38.610048,1.00267401,.000015,0.0410,47.0411,308.8996,331.8436,0,U,41879,999,3479,0,0,0
FENGYUN 4A,2016-077A,2026-06-14T20:32:23.305056,1.00269779,.00087,2.3155,80.3074,153.1119,101.6033,0,U,41882,999,3490,0,-.353E-5,0
ECHOSTAR 19,2016-079A,2026-06-14T19:29:24.474048,1.00270048,.0001113,0.0154,22.5044,55.7702,20.0814,0,U,41893,999,3468,0,-.132E-5,0
JCSAT-110A (JCSAT-15),2016-082A,2026-06-14T21:18:41.971392,1.00269896,.0000354,0.0169,348.9666,122.6848,221.2725,0,U,41903,999,3473,0,-.345E-5,0
STAR ONE D1,2016-082B,2026-06-14T19:33:09.114912,1.00271547,.0002286,0.0168,45.2292,50.0796,17.0959,0,U,41904,999,3475,0,-.205E-5,0
TJS-2,2017-001A,2026-06-14T20:16:02.372160,1.00273066,.0000497,0.8275,85.3579,47.6710,140.6939,0,U,41911,999,3469,0,-.2E-7,0
SBIRS GEO-4 (USA 273),2017-004A,2026-06-14T21:42:24.414336,1.00271365,.0001876,2.2388,43.2218,33.3501,173.1262,0,U,41937,999,3457,0,.127E-5,0
HISPASAT 36W-1,2017-006A,2026-06-14T16:21:31.345920,1.00270953,.0001018,0.0069,296.5954,148.8992,26.8717,0,U,41942,999,3422,0,-.238E-5,0
TELKOM 3S,2017-007A,2026-06-14T20:30:45.959040,1.00271991,.0002036,0.0149,40.9120,37.8309,250.1042,0,U,41944,999,3411,0,-.357E-5,0
INTELSAT 32E (IS-32E),2017-007B,2026-06-14T18:02:08.189952,1.00270640,.0000906,0.0078,34.2510,282.6748,173.4807,0,U,41945,999,3420,0,-.263E-5,0
ECHOSTAR 23,2017-014A,2026-06-14T16:00:25.869312,1.00269481,.000206,0.0011,354.2278,86.4796,312.4694,0,U,42070,999,3389,0,-.5E-6,0
WGS F9 (USA 275),2017-016A,2026-06-14T18:10:59.841120,1.00270167,.0000282,0.0200,326.2292,340.1096,217.4549,0,U,42075,999,3387,0,-.91E-6,0
SES-10,2017-017A,2026-06-14T19:38:01.147776,1.00269770,.0002585,0.0194,30.2411,59.7274,40.7562,0,U,42432,999,3373,0,-.267E-5,0
CHINASAT 16 (SJ-13),2017-018A,2026-06-14T20:28:38.664192,1.00269649,.0004172,0.0989,90.5906,139.3731,90.8820,0,U,42662,999,3372,0,-.346E-5,0
KOREASAT 7,2017-023A,2026-06-14T20:30:08.520192,1.00271803,.0000779,0.0252,18.3559,65.5399,242.6849,0,U,42691,999,3334,0,-.356E-5,0
SGDC,2017-023B,2026-06-14T11:28:24.509280,1.00271559,.0002445,0.0452,76.6977,15.5040,267.8288,0,U,42692,999,3337,0,-.242E-5,0
GSAT-9,2017-024A,2026-06-14T21:00:25.500096,1.00270120,.0002531,0.0187,72.7636,14.0871,228.7712,0,U,42695,999,3327,0,-.281E-5,0
INMARSAT 5-F4,2017-025A,2026-06-14T20:12:58.226976,1.00270896,.0000634,0.0189,19.4878,347.9243,255.4475,0,U,42698,999,3325,0,.81E-6,0
SES-15,2017-026A,2026-06-14T17:37:33.048192,1.00265829,.0001033,0.0208,332.5700,33.0120,32.6656,0,U,42709,999,740,0,.67E-6,0
QZS-2 (MICHIBIKI-2),2017-028A,2026-06-14T12:35:02.340960,1.00284682,.0760401,39.4315,243.1943,269.2280,80.7522,0,U,42738,999,759,0,-.137E-5,0
VIASAT-2,2017-029A,2026-06-14T17:54:16.445088,1.00270922,.0000184,0.0174,299.3807,30.7078,131.6299,0,U,42740,999,3318,0,-.259E-5,0
EUTELSAT 172B,2017-029B,2026-06-14T19:03:26.961984,1.00270223,.0000219,0.0092,78.6616,195.6817,86.6342,0,U,42741,999,3371,0,0,0
GSAT-19,2017-031A,2026-06-14T20:10:43.442976,1.00273732,.0007098,0.0445,265.8165,160.6473,187.2183,0,U,42747,999,3312,0,.131E-5,0
ECHOSTAR 21,2017-032A,2026-06-14T19:55:38.591328,1.00272478,.0002031,1.7712,355.5650,95.8704,120.8691,0,U,42749,999,3307,0,.71E-6,0
BULGARIASAT-1,2017-038A,2026-06-14T18:41:38.737248,1.00270462,.0003191,0.0039,284.5936,171.4543,89.3441,0,U,42801,999,3282,0,.17E-6,0
HELLAS-SAT 3,2017-040A,2026-06-14T20:08:06.194112,1.00269960,.0004722,0.0441,38.7442,13.5293,191.8695,0,U,42814,999,3278,0,.158E-5,0
GSAT-17,2017-040B,2026-06-14T20:23:46.628736,1.00269123,.0002112,0.0206,351.9040,314.5103,356.1717,0,U,42815,999,3276,0,0,0
