SKY MUSTER 2 (NBN1B)    
1 41794U 16060B   26165.78868872 -.00000238  00000+0  00000+0 0  9994
2 41794   0.0169 327.8167 0001280 110.1865 253.8137  1.00270335 35491
HIMAWARI-9              
1 41836U 16064A   26165.85920529 -.00000269  00000+0  00000+0 0  9995
2 41836   0.0508 146.6077 0000807 353.7668 212.8607  1.00269796 35184
SHIJIAN-17 (SJ-17)      
1 41838U 16065A   26165.73614361  .00000059  00000+0  00000+0 0  9995
2 41838   5.7466  72.6341 0001710  28.9025 305.9739  0.99853934 35174
GOES 16                 
1 41866U 16071A   26165.66800609 -.00000085  00000+0  00000+0 0  9997
2 41866   0.3347  85.5274 0000200 297.6173  15.6121  1.00270828 35071
TIANLIAN 1-04           
1 41869U 16072A   26165.79501542  .00000036  00000+0  00000+0 0  9994
2 41869   0.8618  82.9346 0042240  89.7938 193.3546  1.00271005 35275
WGS F8 (USA 272)        
1 41879U 16075A   26165.76364132  .00000000  00000+0  00000+0 0  9998
2 41879   0.0410  47.0411 0000150 308.8996 331.8436  1.00267401 34794
FENGYUN 4A              
1 41882U 16077A   26165.85582529 -.00000353  00000+0  00000+0 0  9998
2 41882   2.3155  80.3074 0008700 153.1119 101.6033  1.00269779 34900
ECHOSTAR 19             
1 41893U 16079A   26165.81208882 -.00000132  00000+0  00000+0 0  9990
2 41893   0.0154  22.5044 0001113  55.7702  20.0814  1.00270048 34684
JCSAT-110A (JCSAT-15)   
1 41903U 16082A   26165.88798578 -.00000345  00000+0  00000+0 0  9995
2 41903   0.0169 348.9666 0000354 122.6848 221.2725  1.00269896 34739
STAR ONE D1             
1 41904U 16082B   26165.81468883 -.00000205  00000+0  00000+0 0  9997
2 41904   0.0168  45.2292 0002286  50.0796  17.0959  1.00271547 34751
TJS-2                   
1 41911U 17001A   26165.84447190 -.00000002  00000+0  00000+0 0  9993
2 41911   0.8275  85.3579 0000497  47.6710 140.6939  1.00273066 34691
SBIRS GEO-4 (USA 273)   
1 41937U 17004A   26165.90444924  .00000127  00000+0  00000+0 0  9990
2 41937   2.2388  43.2218 0001876  33.3501 173.1262  1.00271365 34572
HISPASAT 36W-1          
1 41942U 17006A   26165.68161280 -.00000238  00000+0  00000+0 0  9998
2 41942   0.0069 296.5954 0001018 148.8992  26.8717  1.00270953 34227
TELKOM 3S               
1 41944U 17007A   26165.85469860 -.00000357  00000+0  00000+0 0  9997
2 41944   0.0149  40.9120 0002036  37.8309 250.1042  1.00271991 34118
INTELSAT 32E (IS-32E)   
1 41945U 17007B   26165.75148368 -.00000263  00000+0  00000+0 0  9990
2 41945   0.0078  34.2510 0000906 282.6748 173.4807  1.00270640 34206
ECHOSTAR 23             
1 42070U 17014A   26165.66696608 -.00000050  00000+0  00000+0 0  9997
2 42070   0.0011 354.2278 0002060  86.4796 312.4694  1.00269481 33899
WGS F9 (USA 275)        
1 42075U 17016A   26165.75763705 -.00000091  00000+0  00000+0 0  9992
2 42075   0.0200 326.2292 0000282 340.1096 217.4549  1.00270167 33870
SES-10                  
1 42432U 17017A   26165.81806884 -.00000267  00000+0  00000+0 0  9998
2 42432   0.0194  30.2411 0002585  59.7274  40.7562  1.00269770 33738
CHINASAT 16 (SJ-13)     
1 42662U 17018A   26165.85322528 -.00000346  00000+0  00000+0 0  9994
2 42662   0.0989  90.5906 0004172 139.3731  90.8820  1.00269649 33727
KOREASAT 7              
1 42691U 17023A   26165.85426528 -.00000356  00000+0  00000+0 0  9998
2 42691   0.0252  18.3559 0000779  65.5399 242.6849  1.00271803 33344
SGDC                    
1 42692U 17023B   26165.47806145 -.00000242  00000+0  00000+0 0  9998
2 42692   0.0452  76.6977 0002445  15.5040 267.8288  1.00271559 33375
GSAT-9                  
1 42695U 17024A   26165.87529514 -.00000281  00000+0  00000+0 0  9991
2 42695   0.0187  72.7636 0002531  14.0871 228.7712  1.00270120 33274
INMARSAT 5-F4           
1 42698U 17025A   26165.84234059  .00000081  00000+0  00000+0 0  9996
2 42698   0.0189  19.4878 0000634 347.9243 255.4475  1.00270896 33259
SES-15                  
1 42709U 17026A   26165.73441028  .00000067  00000+0  00000+0 0  9998
2 42709   0.0208 332.5700 0001033  33.0120  32.6656  1.00265829  7402
QZS-2 (MICHIBIKI-2)     
1 42738U 17028A   26165.52433265 -.00000137  00000+0  00000+0 0  9992
2 42738  39.4315 243.1943 0760401 269.2280  80.7522  1.00284682  7590
VIASAT-2                
1 42740U 17029A   26165.74602367 -.00000259  00000+0  00000+0 0  9996
2 42740   0.0174 299.3807 0000184  30.7078 131.6299  1.00270922 33186
EUTELSAT 172B           
1 42741U 17029B   26165.79406206  .00000000  00000+0  00000+0 0  9999
2 42741   0.0092  78.6616 0000219 195.6817  86.6342  1.00270223 33714
GSAT-19                 
1 42747U 17031A   26165.84078059  .00000131  00000+0  00000+0 0  9990
2 42747   0.0445 265.8165 0007098 160.6473 187.2183  1.00273732 33127
ECHOSTAR 21             
1 42749U 17032A   26165.83030777  .00000071  00000+0  00000+0 0  9990
2 42749   1.7712 355.5650 0002031  95.8704 120.8691  1.00272478 33075
BULGARIASAT-1           
1 42801U 17038A   26165.77892057  .00000017  00000+0  00000+0 0  9995
2 42801   0.0039 284.5936 0003191 171.4543  89.3441  1.00270462 32821
HELLAS-SAT 3            
1 42814U 17040A   26165.83896058  .00000158  00000+0  00000+0 0  9990
2 42814   0.0441  38.7442 0004722  13.5293 191.8695  1.00269960 32788
GSAT-17                 
1 42815U 17040B   26165.84984524  .00000000  00000+0  00000+0 0  9994
2 42815   0.0206 351.9040 0002112 314.5103 356.1717  1.00269123 32767
